[{"OBJECT_NAME":"ONEWEB-0674","OBJECT_ID":"2023-029AP","EPOCH":"2026-05-12T04:14:40.947648","MEAN_MOTION":13.1450146,"ECCENTRICITY":0.0002218,"INCLINATION":87.8921,"RA_OF_ASC_NODE":296.9058,"ARG_OF_PERICENTER":90.5821,"MEAN_ANOMALY":269.5562,"EPHEMERIS_TYPE":0,"CLASSIFICATION_TYPE":"U","NORAD_CAT_ID":55833,"ELEMENT_SET_NO":999,"REV_AT_EPOCH":15468,"BSTAR":-0.00058393,"MEAN_MOTION_DOT":-2.04e-06,"MEAN_MOTION_DDOT":0.0},{"OBJECT_NAME":"ONEWEB-0675","OBJECT_ID":"2023-029AQ","EPOCH":"2026-05-12T04:39:44.875296","MEAN_MOTION":13.1972569,"ECCENTRICITY":0.0001558,"INCLINATION":87.9146,"RA_OF_ASC_NODE":312.1552,"ARG_OF_PERICENTER":97.2175,"MEAN_ANOMALY":262.9135,"EPHEMERIS_TYPE":0,"CLASSIFICATION_TYPE":"U","NORAD_CAT_ID":55834,"ELEMENT_SET_NO":999,"REV_AT_EPOCH":15417,"BSTAR":-2.8691e-05,"MEAN_MOTION_DOT":1e-08,"MEAN_MOTION_DDOT":0.0},{"OBJECT_NAME":"ONEWEB-0720","OBJECT_ID":"2023-029AR","EPOCH":"2026-05-12T06:17:32.526528","MEAN_MOTION":13.19725469,"ECCENTRICITY":0.0001722,"INCLINATION":87.9145,"RA_OF_ASC_NODE":312.1422,"ARG_OF_PERICENTER":80.6843,"MEAN_ANOMALY":279.4485,"EPHEMERIS_TYPE":0,"CLASSIFICATION_TYPE":"U","NORAD_CAT_ID":55835,"ELEMENT_SET_NO":999,"REV_AT_EPOCH":15410,"BSTAR":1.1973e-05,"MEAN_MOTION_DOT":1.8e-07,"MEAN_MOTION_DDOT":0.0},{"OBJECT_NAME":"ONEWEB-0537","OBJECT_ID":"2023-043A","EPOCH":"2026-05-12T05:57:10.174752","MEAN_MOTION":13.16595851,"ECCENTRICITY":0.0001972,"INCLINATION":87.9098,"RA_OF_ASC_NODE":235.9072,"ARG_OF_PERICENTER":107.9404,"MEAN_ANOMALY":252.1942,"EPHEMERIS_TYPE":0,"CLASSIFICATION_TYPE":"U","NORAD_CAT_ID":56046,"ELEMENT_SET_NO":999,"REV_AT_EPOCH":15423,"BSTAR":2.1432e-05,"MEAN_MOTION_DOT":2.1e-07,"MEAN_MOTION_DDOT":0.0},{"OBJECT_NAME":"ONEWEB-0538","OBJECT_ID":"2023-043B","EPOCH":"2026-05-12T05:48:03.384576","MEAN_MOTION":13.1659541,"ECCENTRICITY":0.0001705,"INCLINATION":87.91,"RA_OF_ASC_NODE":235.9105,"ARG_OF_PERICENTER":103.1467,"MEAN_ANOMALY":256.9854,"EPHEMERIS_TYPE":0,"CLASSIFICATION_TYPE":"U","NORAD_CAT_ID":56047,"ELEMENT_SET_NO":999,"REV_AT_EPOCH":15424,"BSTAR":-0.00010741,"MEAN_MOTION_DOT":-2.8e-07,"MEAN_MOTION_DDOT":0.0},{"OBJECT_NAME":"ONEWEB-0546","OBJECT_ID":"2023-043C","EPOCH":"2026-05-12T05:29:48.997248","MEAN_MOTION":13.16595247,"ECCENTRICITY":0.0002134,"INCLINATION":87.9101,"RA_OF_ASC_NODE":235.9125,"ARG_OF_PERICENTER":120.3153,"MEAN_ANOMALY":239.8189,"EPHEMERIS_TYPE":0,"CLASSIFICATION_TYPE":"U","NORAD_CAT_ID":56048,"ELEMENT_SET_NO":999,"REV_AT_EPOCH":15423,"BSTAR":-3.8484000000000006e-05,"MEAN_MOTION_DOT":-2e-08,"MEAN_MOTION_DDOT":0.0},{"OBJECT_NAME":"ONEWEB-0547","OBJECT_ID":"2023-043D","EPOCH":"2026-05-12T07:00:56.695104","MEAN_MOTION":13.21827045,"ECCENTRICITY":0.0001776,"INCLINATION":87.9245,"RA_OF_ASC_NODE":251.117,"ARG_OF_PERICENTER":96.5001,"MEAN_ANOMALY":263.6336,"EPHEMERIS_TYPE":0,"CLASSIFICATION_TYPE":"U","NORAD_CAT_ID":56049,"ELEMENT_SET_NO":999,"REV_AT_EPOCH":15348,"BSTAR":0.00017873,"MEAN_MOTION_DOT":8.7e-07,"MEAN_MOTION_DDOT":0.0},{"OBJECT_NAME":"ONEWEB-0548","OBJECT_ID":"2023-043E","EPOCH":"2026-05-12T06:05:09.126240","MEAN_MOTION":13.16593408,"ECCENTRICITY":0.0002429,"INCLINATION":87.9097,"RA_OF_ASC_NODE":235.9051,"ARG_OF_PERICENTER":99.3077,"MEAN_ANOMALY":260.8329,"EPHEMERIS_TYPE":0,"CLASSIFICATION_TYPE":"U","NORAD_CAT_ID":56050,"ELEMENT_SET_NO":999,"REV_AT_EPOCH":15423,"BSTAR":0.00010227000000000001,"MEAN_MOTION_DOT":5.2e-07,"MEAN_MOTION_DDOT":0.0},{"OBJECT_NAME":"ONEWEB-0549","OBJECT_ID":"2023-043F","EPOCH":"2026-05-12T06:52:29.252352","MEAN_MOTION":13.21827247,"ECCENTRICITY":0.0001558,"INCLINATION":87.9237,"RA_OF_ASC_NODE":251.1258,"ARG_OF_PERICENTER":100.4624,"MEAN_ANOMALY":259.6686,"EPHEMERIS_TYPE":0,"CLASSIFICATION_TYPE":"U","NORAD_CAT_ID":56051,"ELEMENT_SET_NO":999,"REV_AT_EPOCH":15348,"BSTAR":0.00012453,"MEAN_MOTION_DOT":6.4e-07,"MEAN_MOTION_DDOT":0.0},{"OBJECT_NAME":"ONEWEB-0550","OBJECT_ID":"2023-043G","EPOCH":"2026-05-12T06:33:04.714272","MEAN_MOTION":13.21822641,"ECCENTRICITY":0.0002149,"INCLINATION":87.924,"RA_OF_ASC_NODE":251.1253,"ARG_OF_PERICENTER":97.4756,"MEAN_ANOMALY":262.6622,"EPHEMERIS_TYPE":0,"CLASSIFICATION_TYPE":"U","NORAD_CAT_ID":56052,"ELEMENT_SET_NO":999,"REV_AT_EPOCH":15348,"BSTAR":0.0006288200000000001,"MEAN_MOTION_DOT":2.73e-06,"MEAN_MOTION_DDOT":0.0},{"OBJECT_NAME":"ONEWEB-0551","OBJECT_ID":"2023-043H","EPOCH":"2026-05-12T02:29:51.350784","MEAN_MOTION":13.15548638,"ECCENTRICITY":0.0001553,"INCLINATION":87.8972,"RA_OF_ASC_NODE":266.4194,"ARG_OF_PERICENTER":95.7517,"MEAN_ANOMALY":264.3791,"EPHEMERIS_TYPE":0,"CLASSIFICATION_TYPE":"U","NORAD_CAT_ID":56053,"ELEMENT_SET_NO":999,"REV_AT_EPOCH":15165,"BSTAR":-0.00029281,"MEAN_MOTION_DOT":-9.7e-07,"MEAN_MOTION_DDOT":0.0},{"OBJECT_NAME":"ONEWEB-0552","OBJECT_ID":"2023-043J","EPOCH":"2026-05-12T06:25:50.044512","MEAN_MOTION":13.21824152,"ECCENTRICITY":0.0001901,"INCLINATION":87.9237,"RA_OF_ASC_NODE":251.1327,"ARG_OF_PERICENTER":94.3466,"MEAN_ANOMALY":265.7885,"EPHEMERIS_TYPE":0,"CLASSIFICATION_TYPE":"U","NORAD_CAT_ID":56054,"ELEMENT_SET_NO":999,"REV_AT_EPOCH":15348,"BSTAR":0.00022428000000000001,"MEAN_MOTION_DOT":1.06e-06,"MEAN_MOTION_DDOT":0.0},{"OBJECT_NAME":"ONEWEB-0553","OBJECT_ID":"2023-043K","EPOCH":"2026-05-12T05:38:55.801248","MEAN_MOTION":13.16595746,"ECCENTRICITY":0.0002192,"INCLINATION":87.9099,"RA_OF_ASC_NODE":235.9123,"ARG_OF_PERICENTER":111.4121,"MEAN_ANOMALY":248.7244,"EPHEMERIS_TYPE":0,"CLASSIFICATION_TYPE":"U","NORAD_CAT_ID":56055,"ELEMENT_SET_NO":999,"REV_AT_EPOCH":15424,"BSTAR":-5.0544e-05,"MEAN_MOTION_DOT":-6e-08,"MEAN_MOTION_DDOT":0.0},{"OBJECT_NAME":"ONEWEB-0554","OBJECT_ID":"2023-043L","EPOCH":"2026-05-12T07:10:08.120640","MEAN_MOTION":13.1659572,"ECCENTRICITY":0.0002287,"INCLINATION":87.91,"RA_OF_ASC_NODE":235.9094,"ARG_OF_PERICENTER":101.3644,"MEAN_ANOMALY":258.7744,"EPHEMERIS_TYPE":0,"CLASSIFICATION_TYPE":"U","NORAD_CAT_ID":56056,"ELEMENT_SET_NO":999,"REV_AT_EPOCH":15423,"BSTAR":4.4619e-05,"MEAN_MOTION_DOT":3e-07,"MEAN_MOTION_DDOT":0.0},{"OBJECT_NAME":"ONEWEB-0555","OBJECT_ID":"2023-043M","EPOCH":"2026-05-12T06:15:25.300800","MEAN_MOTION":13.16593403,"ECCENTRICITY":0.0002191,"INCLINATION":87.9101,"RA_OF_ASC_NODE":235.9037,"ARG_OF_PERICENTER":117.6977,"MEAN_ANOMALY":242.4376,"EPHEMERIS_TYPE":0,"CLASSIFICATION_TYPE":"U","NORAD_CAT_ID":56057,"ELEMENT_SET_NO":999,"REV_AT_EPOCH":15423,"BSTAR":4.0322000000000005e-05,"MEAN_MOTION_DOT":2.8e-07,"MEAN_MOTION_DDOT":0.0},{"OBJECT_NAME":"ONEWEB-0557","OBJECT_ID":"2023-043N","EPOCH":"2026-05-12T06:35:56.072256","MEAN_MOTION":13.16595582,"ECCENTRICITY":0.0003197,"INCLINATION":87.9098,"RA_OF_ASC_NODE":235.9117,"ARG_OF_PERICENTER":110.1055,"MEAN_ANOMALY":250.042,"EPHEMERIS_TYPE":0,"CLASSIFICATION_TYPE":"U","NORAD_CAT_ID":56058,"ELEMENT_SET_NO":999,"REV_AT_EPOCH":15423,"BSTAR":0.00015998000000000002,"MEAN_MOTION_DOT":7.4e-07,"MEAN_MOTION_DDOT":0.0}]