ONEWEB-0674             
1 55833U 23029AP  26132.17686282 -.00000204  00000+0 -58393-3 0  9992
2 55833  87.8921 296.9058 0002218  90.5821 269.5562 13.14501460154682
ONEWEB-0675             
1 55834U 23029AQ  26132.19426939  .00000001  00000+0 -28691-4 0  9999
2 55834  87.9146 312.1552 0001558  97.2175 262.9135 13.19725690154170
ONEWEB-0720             
1 55835U 23029AR  26132.26218202  .00000018  00000+0  11973-4 0  9992
2 55835  87.9145 312.1422 0001722  80.6843 279.4485 13.19725469154105
ONEWEB-0537             
1 56046U 23043A   26132.24803443  .00000021  00000+0  21432-4 0  9993
2 56046  87.9098 235.9072 0001972 107.9404 252.1942 13.16595851154230
ONEWEB-0538             
1 56047U 23043B   26132.24170584 -.00000028  00000+0 -10741-3 0  9996
2 56047  87.9100 235.9105 0001705 103.1467 256.9854 13.16595410154249
ONEWEB-0546             
1 56048U 23043C   26132.22903932 -.00000002  00000+0 -38484-4 0  9993
2 56048  87.9101 235.9125 0002134 120.3153 239.8189 13.16595247154231
ONEWEB-0547             
1 56049U 23043D   26132.29232286  .00000087  00000+0  17873-3 0  9997
2 56049  87.9245 251.1170 0001776  96.5001 263.6336 13.21827045153483
ONEWEB-0548             
1 56050U 23043E   26132.25357785  .00000052  00000+0  10227-3 0  9995
2 56050  87.9097 235.9051 0002429  99.3077 260.8329 13.16593408154230
ONEWEB-0549             
1 56051U 23043F   26132.28644968  .00000064  00000+0  12453-3 0  9997
2 56051  87.9237 251.1258 0001558 100.4624 259.6686 13.21827247153485
ONEWEB-0550             
1 56052U 23043G   26132.27297123  .00000273  00000+0  62882-3 0  9997
2 56052  87.9240 251.1253 0002149  97.4756 262.6622 13.21822641153480
ONEWEB-0551             
1 56053U 23043H   26132.10406656 -.00000097  00000+0 -29281-3 0  9995
2 56053  87.8972 266.4194 0001553  95.7517 264.3791 13.15548638151656
ONEWEB-0552             
1 56054U 23043J   26132.26794033  .00000106  00000+0  22428-3 0  9997
2 56054  87.9237 251.1327 0001901  94.3466 265.7885 13.21824152153483
ONEWEB-0553             
1 56055U 23043K   26132.23536807 -.00000006  00000+0 -50544-4 0  9990
2 56055  87.9099 235.9123 0002192 111.4121 248.7244 13.16595746154249
ONEWEB-0554             
1 56056U 23043L   26132.29870510  .00000030  00000+0  44619-4 0  9990
2 56056  87.9100 235.9094 0002287 101.3644 258.7744 13.16595720154230
ONEWEB-0555             
1 56057U 23043M   26132.26070950  .00000028  00000+0  40322-4 0  9992
2 56057  87.9101 235.9037 0002191 117.6977 242.4376 13.16593403154239
ONEWEB-0557             
1 56058U 23043N   26132.27495454  .00000074  00000+0  15998-3 0  9995
2 56058  87.9098 235.9117 0003197 110.1055 250.0420 13.16595582154231
